[{"OBJECT_NAME":"STARLINK-30515","OBJECT_ID":"2023-151V","EPOCH":"2026-03-09T04:33:05.756544","MEAN_MOTION":15.02535748,"ECCENTRICITY":0.00013484,"INCLINATION":43.0055,"RA_OF_ASC_NODE":354.6324,"ARG_OF_PERICENTER":270.3193,"MEAN_ANOMALY":89.7495,"EPHEMERIS_TYPE":0,"CLASSIFICATION_TYPE":"U","NORAD_CAT_ID":57983,"ELEMENT_SET_NO":999,"REV_AT_EPOCH":13550,"BSTAR":1.2125609e-5,"MEAN_MOTION_DOT":-4.0e-7,"MEAN_MOTION_DDOT":0},{"OBJECT_NAME":"SL-3 DEB","OBJECT_ID":"1988-032C","EPOCH":"2026-03-09T20:54:05.348736","MEAN_MOTION":15.06065434,"ECCENTRICITY":0.00240661,"INCLINATION":97.6252,"RA_OF_ASC_NODE":41.5186,"ARG_OF_PERICENTER":162.4496,"MEAN_ANOMALY":255.7854,"EPHEMERIS_TYPE":0,"CLASSIFICATION_TYPE":"U","NORAD_CAT_ID":24893,"ELEMENT_SET_NO":999,"REV_AT_EPOCH":81391,"BSTAR":0.00022425917,"MEAN_MOTION_DOT":3.232e-5,"MEAN_MOTION_DDOT":0}]
